{
  "type": "FeatureCollection",
  "features": [
    {
      "type": "Feature",
      "properties": {
        "norad_id": 66650,
        "name": "2025-274A",
        "group": "last-30-days",
        "lat": 52.385829740666864,
        "lon": 94.5139479791801,
        "alt_km": 595.0390356447879,
        "timestamp": "2025-12-02T23:34:14.292369+00:00",
        "meta_object_name": "2025-274A",
        "meta_object_id": "2025-274A",
        "meta_epoch": "2025-12-02T00:27:47.322144",
        "meta_mean_motion": 14.91599451,
        "meta_eccentricity": 0.00104776,
        "meta_inclination": 97.7378,
        "meta_ra_of_asc_node": 263.405,
        "meta_arg_of_pericenter": 292.6464,
        "meta_mean_anomaly": 67.3646,
        "meta_ephemeris_type": 0,
        "meta_classification_type": "U",
        "meta_norad_cat_id": 66650,
        "meta_element_set_no": 999,
        "meta_rev_at_epoch": 80,
        "meta_bstar": 0.00026443629,
        "meta_mean_motion_dot": 2.6e-05,
        "meta_mean_motion_ddot": 0,
        "tle_line1": "1 66650U 25274A   25336.01929771  .00002600  00000+0  26444-3 0  9998",
        "tle_line2": "2 66650  97.7378 263.4050 0010477 292.6464  67.3646 14.91599451   806"
      },
      "geometry": {
        "type": "Point",
        "coordinates": [
          94.5139479791801,
          52.385829740666864
        ]
      }
    },
    {
      "type": "Feature",
      "properties": {
        "norad_id": 66651,
        "name": "2025-274B",
        "group": "last-30-days",
        "lat": 51.113143892929884,
        "lon": 94.05517685004432,
        "alt_km": 595.1011758679988,
        "timestamp": "2025-12-02T23:34:14.292386+00:00",
        "meta_object_name": "2025-274B",
        "meta_object_id": "2025-274B",
        "meta_epoch": "2025-12-02T11:43:40.294848",
        "meta_mean_motion": 14.91669862,
        "meta_eccentricity": 0.0010768,
        "meta_inclination": 97.7375,
        "meta_ra_of_asc_node": 263.8656,
        "meta_arg_of_pericenter": 290.3987,
        "meta_mean_anomaly": 69.6075,
        "meta_ephemeris_type": 0,
        "meta_classification_type": "U",
        "meta_norad_cat_id": 66651,
        "meta_element_set_no": 999,
        "meta_rev_at_epoch": 87,
        "meta_bstar": 0.0005287,
        "meta_mean_motion_dot": 5.266e-05,
        "meta_mean_motion_ddot": 0,
        "tle_line1": "1 66651U 25274B   25336.48866082  .00005266  00000+0  52870-3 0  9998",
        "tle_line2": "2 66651  97.7375 263.8656 0010768 290.3987  69.6075 14.91669862   870"
      },
      "geometry": {
        "type": "Point",
        "coordinates": [
          94.05517685004432,
          51.113143892929884
        ]
      }
    },
    {
      "type": "Feature",
      "properties": {
        "norad_id": 66652,
        "name": "2025-274C",
        "group": "last-30-days",
        "lat": 47.76433250118731,
        "lon": 92.96529660619655,
        "alt_km": 595.0982811451004,
        "timestamp": "2025-12-02T23:34:14.292396+00:00",
        "meta_object_name": "2025-274C",
        "meta_object_id": "2025-274C",
        "meta_epoch": "2025-12-02T08:29:39.348960",
        "meta_mean_motion": 14.91815553,
        "meta_eccentricity": 0.0010543,
        "meta_inclination": 97.7379,
        "meta_ra_of_asc_node": 263.7352,
        "meta_arg_of_pericenter": 297.6365,
        "meta_mean_anomaly": 62.3783,
        "meta_ephemeris_type": 0,
        "meta_classification_type": "U",
        "meta_norad_cat_id": 66652,
        "meta_element_set_no": 999,
        "meta_rev_at_epoch": 85,
        "meta_bstar": 0.00038586,
        "meta_mean_motion_dot": 3.842e-05,
        "meta_mean_motion_ddot": 0,
        "tle_line1": "1 66652U 25274C   25336.35392765  .00003842  00000+0  38586-3 0  9993",
        "tle_line2": "2 66652  97.7379 263.7352 0010543 297.6365  62.3783 14.91815553   852"
      },
      "geometry": {
        "type": "Point",
        "coordinates": [
          92.96529660619655,
          47.76433250118731
        ]
      }
    },
    {
      "type": "Feature",
      "properties": {
        "norad_id": 66653,
        "name": "2025-274D",
        "group": "last-30-days",
        "lat": 47.59425160353441,
        "lon": 92.91234654056544,
        "alt_km": 595.5321729540528,
        "timestamp": "2025-12-02T23:34:14.292406+00:00",
        "meta_object_name": "2025-274D",
        "meta_object_id": "2025-274D",
        "meta_epoch": "2025-12-02T02:03:15.458976",
        "meta_mean_motion": 14.91817003,
        "meta_eccentricity": 0.00114739,
        "meta_inclination": 97.7373,
        "meta_ra_of_asc_node": 263.4712,
        "meta_arg_of_pericenter": 293.8442,
        "meta_mean_anomaly": 66.1574,
        "meta_ephemeris_type": 0,
        "meta_classification_type": "U",
        "meta_norad_cat_id": 66653,
        "meta_element_set_no": 999,
        "meta_rev_at_epoch": 81,
        "meta_bstar": 0.00016079552,
        "meta_mean_motion_dot": 1.568e-05,
        "meta_mean_motion_ddot": 0,
        "tle_line1": "1 66653U 25274D   25336.08559559  .00001568  00000+0  16080-3 0  9998",
        "tle_line2": "2 66653  97.7373 263.4712 0011473 293.8442  66.1574 14.91817003   819"
      },
      "geometry": {
        "type": "Point",
        "coordinates": [
          92.91234654056544,
          47.59425160353441
        ]
      }
    },
    {
      "type": "Feature",
      "properties": {
        "norad_id": 66654,
        "name": "JACK E",
        "group": "last-30-days",
        "lat": 44.00903731301349,
        "lon": 91.90108397380608,
        "alt_km": 595.6969743710924,
        "timestamp": "2025-12-02T23:34:14.292421+00:00",
        "meta_object_name": "JACK E",
        "meta_object_id": "2025-274E",
        "meta_epoch": "2025-12-02T08:28:43.476672",
        "meta_mean_motion": 14.91986405,
        "meta_eccentricity": 0.0011895,
        "meta_inclination": 97.738,
        "meta_ra_of_asc_node": 263.7361,
        "meta_arg_of_pericenter": 294.8017,
        "meta_mean_anomaly": 65.1964,
        "meta_ephemeris_type": 0,
        "meta_classification_type": "U",
        "meta_norad_cat_id": 66654,
        "meta_element_set_no": 999,
        "meta_rev_at_epoch": 85,
        "meta_bstar": 0.00044048,
        "meta_mean_motion_dot": 4.414e-05,
        "meta_mean_motion_ddot": 0,
        "tle_line1": "1 66654U 25274E   25336.35328098  .00004414  00000+0  44048-3 0  9999",
        "tle_line2": "2 66654  97.7380 263.7361 0011895 294.8017  65.1964 14.91986405   857"
      },
      "geometry": {
        "type": "Point",
        "coordinates": [
          91.90108397380608,
          44.00903731301349
        ]
      }
    },
    {
      "type": "Feature",
      "properties": {
        "norad_id": 66655,
        "name": "2025-274F",
        "group": "last-30-days",
        "lat": 40.969717136008796,
        "lon": 91.1331983303179,
        "alt_km": 593.3324794928803,
        "timestamp": "2025-12-02T23:34:14.292431+00:00",
        "meta_object_name": "2025-274F",
        "meta_object_id": "2025-274F",
        "meta_epoch": "2025-12-02T08:28:04.010880",
        "meta_mean_motion": 14.92211105,
        "meta_eccentricity": 0.0007937,
        "meta_inclination": 97.7353,
        "meta_ra_of_asc_node": 263.7368,
        "meta_arg_of_pericenter": 323.5815,
        "meta_mean_anomaly": 36.4863,
        "meta_ephemeris_type": 0,
        "meta_classification_type": "U",
        "meta_norad_cat_id": 66655,
        "meta_element_set_no": 999,
        "meta_rev_at_epoch": 85,
        "meta_bstar": 0.00043867,
        "meta_mean_motion_dot": 4.417e-05,
        "meta_mean_motion_ddot": 0,
        "tle_line1": "1 66655U 25274F   25336.35282420  .00004417  00000+0  43867-3 0  9999",
        "tle_line2": "2 66655  97.7353 263.7368 0007937 323.5815  36.4863 14.92211105   851"
      },
      "geometry": {
        "type": "Point",
        "coordinates": [
          91.1331983303179,
          40.969717136008796
        ]
      }
    },
    {
      "type": "Feature",
      "properties": {
        "norad_id": 66656,
        "name": "2025-274G",
        "group": "last-30-days",
        "lat": 40.0288711409822,
        "lon": 90.9130462677027,
        "alt_km": 596.0044498997795,
        "timestamp": "2025-12-02T23:34:14.292441+00:00",
        "meta_object_name": "2025-274G",
        "meta_object_id": "2025-274G",
        "meta_epoch": "2025-12-02T08:27:44.799840",
        "meta_mean_motion": 14.92167211,
        "meta_eccentricity": 0.0012553,
        "meta_inclination": 97.7377,
        "meta_ra_of_asc_node": 263.7369,
        "meta_arg_of_pericenter": 296.3636,
        "meta_mean_anomaly": 63.6294,
        "meta_ephemeris_type": 0,
        "meta_classification_type": "U",
        "meta_norad_cat_id": 66656,
        "meta_element_set_no": 999,
        "meta_rev_at_epoch": 85,
        "meta_bstar": 0.00048118,
        "meta_mean_motion_dot": 4.85e-05,
        "meta_mean_motion_ddot": 0,
        "tle_line1": "1 66656U 25274G   25336.35260185  .00004850  00000+0  48118-3 0  9999",
        "tle_line2": "2 66656  97.7377 263.7369 0012553 296.3636  63.6294 14.92167211   855"
      },
      "geometry": {
        "type": "Point",
        "coordinates": [
          90.9130462677027,
          40.0288711409822
        ]
      }
    }
  ]
}